NORAD_CAT_ID,OBJECT_NAME,OBJECT_TYPE,EPOCH,MEAN_MOTION,ECCENTRICITY,INCLINATION,RA_OF_ASC_NODE,ARG_OF_PERICENTER,MEAN_ANOMALY,BSTAR,MEAN_MOTION_DOT,MEAN_MOTION_DDOT,TLE_LINE0,TLE_LINE1,TLE_LINE2,SEMIMAJOR_AXIS,PERIOD,APOGEE,PERIGEE,DECAYED
52837.0,STARLINK-4036,PAYLOAD,2024-04-14 16:23:26,15.08834917,0.0001331,53.2174,269.6358,87.6594,272.4551,-0.00010683,-1.987e-05,0.0,0 STARLINK-4036,1 52837U 22062H   24105.68295049 -.00001987  00000-0 -10683-3 0  9990,2 52837  53.2174 269.6358 0001331  87.6594 272.4551 15.08834917101010,6917.896,95.438,540.682,538.84,0.0
52837.0,STARLINK-4036,PAYLOAD,2024-04-15 11:28:04,15.08844772,0.0001364,53.2171,266.0673,84.723,275.3918,-0.00029717,-5.015e-05,0.0,0 STARLINK-4036,1 52837U 22062H   24106.47782736 -.00005015  00000-0 -29717-3 0  9996,2 52837  53.2171 266.0673 0001364  84.7230 275.3918 15.08844772101131,6917.866,95.437,540.674,538.787,0.0
52837.0,STARLINK-4036,PAYLOAD,2024-04-15 14:38:50,15.08846942,0.0001431,53.2176,265.4723,98.2169,261.8986,-0.0002317,-3.974e-05,0.0,0 STARLINK-4036,1 52837U 22062H   24106.61030523 -.00003974  00000-0 -23170-3 0  9991,2 52837  53.2176 265.4723 0001431  98.2169 261.8986 15.08846942101159,6917.859,95.437,540.714,538.734,0.0
52837.0,STARLINK-4036,PAYLOAD,2024-04-15 17:49:35,15.08863094,0.0001702,53.2171,264.8802,101.3294,258.7889,-0.00062338,-0.00010202,0.0,0 STARLINK-4036,1 52837U 22062H   24106.74277549 -.00010202  00000-0 -62338-3 0  9997,2 52837  53.2171 264.8802 0001702 101.3294 258.7889 15.08863094101177,6917.81,95.436,540.852,538.497,0.0
52837.0,STARLINK-4036,PAYLOAD,2024-04-16 09:43:28,15.08835214,0.000143,53.2173,261.9077,90.9611,269.1544,0.00024295,3.58e-05,0.0,0 STARLINK-4036,1 52837U 22062H   24107.40519553  .00003580  00000-0  24295-3 0  9994,2 52837  53.2173 261.9077 0001430  90.9611 269.1544 15.08835214101273,6917.895,95.438,540.749,538.771,0.0
52837.0,STARLINK-4036,PAYLOAD,2024-04-16 14:29:38,15.08837832,0.0001341,53.2171,261.0163,84.8164,275.2981,0.00032782,4.933e-05,0.0,0 STARLINK-4036,1 52837U 22062H   24107.60391594  .00004933  00000-0  32782-3 0  9992,2 52837  53.2171 261.0163 0001341  84.8164 275.2981 15.08837832101309,6917.887,95.438,540.68,538.824,0.0
52837.0,STARLINK-4036,PAYLOAD,2024-04-16 17:40:23,15.08855711,0.0001478,53.2169,260.4185,84.1264,275.9897,0.00057853,8.935e-05,0.0,0 STARLINK-4036,1 52837U 22062H   24107.73638884  .00008935  00000-0  57853-3 0  9994,2 52837  53.2169 260.4185 0001478  84.1264 275.9897 15.08855711101329,6917.832,95.437,540.72,538.675,0.0
52837.0,STARLINK-4036,PAYLOAD,2024-04-17 14:20:25,15.08830018,0.0001596,53.2167,256.5572,129.6495,230.4638,8.0295e-08,-2.87e-06,0.0,0 STARLINK-4036,1 52837U 22062H   24108.59752113 -.00000287  00000-0  80295-7 0  9994,2 52837  53.2167 256.5572 0001596 129.6495 230.4638 15.08830018101451,6917.911,95.438,540.88,538.672,0.0
52837.0,STARLINK-4036,PAYLOAD,2024-04-17 17:31:12,15.08833096,0.000139,53.2168,255.9589,91.6809,268.4342,0.0001071,1.417e-05,0.0,0 STARLINK-4036,1 52837U 22062H   24108.73000342  .00001417  00000-0  10710-3 0  9996,2 52837  53.2168 255.9589 0001390  91.6809 268.4342 15.08833096101476,6917.901,95.438,540.728,538.805,0.0
52837.0,STARLINK-4036,PAYLOAD,2024-04-18 15:46:36,15.08842966,0.0001286,53.2168,251.7941,98.6529,261.4609,0.00034581,5.22e-05,0.0,0 STARLINK-4036,1 52837U 22062H   24109.65736471  .00005220  00000-0  34581-3 0  9995,2 52837  53.2168 251.7941 0001286  98.6529 261.4609 15.08842966101613,6917.871,95.437,540.626,538.847,0.0
52837.0,STARLINK-4036,PAYLOAD,2024-04-19 12:26:37,15.08846571,0.0001512,53.2171,247.9317,108.2058,251.9099,0.00036352,5.503e-05,0.0,0 STARLINK-4036,1 52837U 22062H   24110.51848455  .00005503  00000-0  36352-3 0  9990,2 52837  53.2171 247.9317 0001512 108.2058 251.9099 15.08846571101745,6917.86,95.437,540.771,538.679,0.0
52837.0,STARLINK-4036,PAYLOAD,2024-04-19 14:02:00,15.08850058,0.0001304,53.2175,247.6338,91.124,268.9902,0.00034608,5.226e-05,0.0,0 STARLINK-4036,1 52837U 22062H   24110.58472359  .00005226  00000-0  34608-3 0  9997,2 52837  53.2175 247.6338 0001304  91.1240 268.9902 15.08850058101758,6917.85,95.437,540.617,538.813,0.0
52837.0,STARLINK-4036,PAYLOAD,2024-04-20 12:17:22,15.08803482,0.0001467,53.2178,243.4701,27.718,332.389,-0.0017582,-0.00028133,0.0,0 STARLINK-4036,1 52837U 22062H   24111.51206803 -.00028133  00000-0 -17582-2 0  9995,2 52837  53.2178 243.4701 0001467  27.7180 332.3890 15.08803482101893,6917.992,95.44,540.872,538.842,0.0
52837.0,STARLINK-4036,PAYLOAD,2024-04-20 18:38:55,15.08795784,0.00012,53.2182,242.2774,91.7344,268.3786,-0.0014187,-0.00022768,0.0,0 STARLINK-4036,1 52837U 22062H   24111.77703362 -.00022768  00000-0 -14187-2 0  9991,2 52837  53.2182 242.2774 0001200  91.7344 268.3786 15.08795784101935,6918.016,95.44,540.711,539.05,0.0
52837.0,STARLINK-4036,PAYLOAD,2024-04-21 13:43:33,15.08861676,0.0002046,53.2174,238.7067,119.75,240.3696,0.0018498,0.00029292,0.0,0 STARLINK-4036,1 52837U 22062H   24112.57191848  .00029292  00000-0  18498-2 0  9996,2 52837  53.2174 238.7067 0002046 119.7500 240.3696 15.08861676102053,6917.814,95.436,541.095,538.264,0.0
52837.0,STARLINK-4036,PAYLOAD,2024-04-22 08:48:10,15.08864088,0.0002049,53.2181,235.1448,92.0896,268.033,0.00083628,0.00013055,0.0,0 STARLINK-4036,1 52837U 22062H   24113.36679253  .00013055  00000-0  83628-3 0  9993,2 52837  53.2181 235.1448 0002049  92.0896 268.0330 15.08864088102174,6917.807,95.436,541.089,538.254,0.0
52837.0,STARLINK-4036,PAYLOAD,2024-04-22 15:09:42,15.0886708,0.000131,53.2176,233.9523,93.2561,266.8581,5.4197e-05,5.75e-06,0.0,0 STARLINK-4036,1 52837U 22062H   24113.63174616  .00000575  00000-0  54197-4 0  9999,2 52837  53.2176 233.9523 0001310  93.2561 266.8581 15.08867080102214,6917.798,95.436,540.569,538.756,0.0
52837.0,STARLINK-4036,PAYLOAD,2024-04-23 13:25:08,15.08818158,0.000168,53.2181,229.7941,97.1929,262.9254,-0.00012053,-2.205e-05,0.0,0 STARLINK-4036,1 52837U 22062H   24114.55912708 -.00002205  00000-0 -12053-3 0  9991,2 52837  53.2181 229.7941 0001680  97.1929 262.9254 15.08818158102359,6917.947,95.439,540.974,538.65,0.0
52837.0,STARLINK-4036,PAYLOAD,2024-04-23 15:00:31,15.08820085,0.0001843,53.2183,229.4942,74.2176,285.9019,0.0001251,1.702e-05,0.0,0 STARLINK-4036,1 52837U 22062H   24114.62536969  .00001702  00000-0  12510-3 0  9997,2 52837  53.2183 229.4942 0001843  74.2176 285.9019 15.08820085102367,6917.941,95.439,541.081,538.531,0.0
52837.0,STARLINK-4036,PAYLOAD,2024-04-24 13:15:56,15.08829869,0.0001948,53.218,225.3349,65.4041,294.7154,0.00052113,8.013e-05,0.0,0 STARLINK-4036,1 52837U 22062H   24115.55274259  .00008013  00000-0  52113-3 0  9996,2 52837  53.2180 225.3349 0001948  65.4041 294.7154 15.08829869102502,6917.911,95.438,541.124,538.429,0.0
52837.0,STARLINK-4036,PAYLOAD,2024-04-24 14:51:20,15.0883528,0.0002044,53.2179,225.0366,55.2521,304.8663,0.00099778,0.00015625,0.0,0 STARLINK-4036,1 52837U 22062H   24115.61898329  .00015625  00000-0  99778-3 0  9998,2 52837  53.2179 225.0366 0002044  55.2521 304.8663 15.08835280102517,6917.895,95.438,541.174,538.346,0.0
52837.0,STARLINK-4036,PAYLOAD,2024-04-25 13:06:43,15.08844019,0.0002082,53.218,220.869,55.2906,304.8282,0.00051114,7.857e-05,0.0,0 STARLINK-4036,1 52837U 22062H   24116.54634255  .00007857  00000-0  51114-3 0  9997,2 52837  53.2180 220.8690 0002082  55.2906 304.8282 15.08844019102653,6917.868,95.437,541.173,538.293,0.0
52837.0,STARLINK-4036,PAYLOAD,2024-04-25 14:42:07,15.08849558,0.0002115,53.2178,220.5787,57.2533,302.8663,0.00058852,9.093e-05,0.0,0 STARLINK-4036,1 52837U 22062H   24116.61258172  .00009093  00000-0  58852-3 0  9995,2 52837  53.2178 220.5787 0002115  57.2533 302.8663 15.08849558102664,6917.851,95.437,541.179,538.253,0.0
52837.0,STARLINK-4036,PAYLOAD,2024-04-26 12:57:30,15.0885833,0.0001329,53.2172,216.4118,86.9746,273.1398,0.00053409,8.227e-05,0.0,0 STARLINK-4036,1 52837U 22062H   24117.53993142  .00008227  00000-0  53409-3 0  9991,2 52837  53.2172 216.4118 0001329  86.9746 273.1398 15.08858330102800,6917.824,95.436,540.609,538.77,0.0
52837.0,STARLINK-4036,PAYLOAD,2024-04-27 12:48:16,15.08867256,0.0001571,53.2171,211.95,74.0762,286.0403,0.00067031,0.00010404,0.0,0 STARLINK-4036,1 52837U 22062H   24118.53352180  .00010404  00000-0  67031-3 0  9999,2 52837  53.2171 211.9500 0001571  74.0762 286.0403 15.08867256102952,6917.797,95.436,540.749,538.575,0.0
52837.0,STARLINK-4036,PAYLOAD,2024-04-28 12:39:04,15.08823613,0.0001295,53.2156,207.489,72.71,287.4033,-0.00025292,-4.309e-05,0.0,0 STARLINK-4036,1 52837U 22062H   24119.52713731 -.00004309  00000-0 -25292-3 0  9994,2 52837  53.2156 207.4890 0001295  72.7100 287.4033 15.08823613103102,6917.93,95.439,540.691,538.9,0.0
52837.0,STARLINK-4036,PAYLOAD,2024-04-29 12:29:52,15.08842297,0.0001421,53.2166,203.0313,90.408,269.7075,0.0010047,0.00015739,0.0,0 STARLINK-4036,1 52837U 22062H   24120.52074548  .00015739  00000-0  10047-2 0  9990,2 52837  53.2166 203.0313 0001421  90.4080 269.7075 15.08842297103254,6917.873,95.437,540.721,538.755,0.0
52837.0,STARLINK-4036,PAYLOAD,2024-04-29 22:02:11,15.08852274,0.0001315,53.2155,201.2469,85.381,274.7332,0.00076271,0.00011875,0.0,0 STARLINK-4036,1 52837U 22062H   24120.91818319  .00011875  00000-0  76271-3 0  9994,2 52837  53.2155 201.2469 0001315  85.3810 274.7332 15.08852274103315,6917.843,95.437,540.618,538.798,0.0
52837.0,STARLINK-4036,PAYLOAD,2024-04-30 12:20:38,15.08858742,0.0001411,53.2164,198.5716,91.13,268.9853,0.00057668,8.906e-05,0.0,0 STARLINK-4036,1 52837U 22062H   24121.51433837  .00008906  00000-0  57668-3 0  9999,2 52837  53.2164 198.5716 0001411  91.1300 268.9853 15.08858742103403,6917.823,95.436,540.664,538.712,0.0
52837.0,STARLINK-4036,PAYLOAD,2024-04-30 21:52:57,15.08856709,0.0001389,53.216,196.7876,91.1781,268.9371,0.00039909,6.072e-05,0.0,0 STARLINK-4036,1 52837U 22062H   24121.91177544  .00006072  00000-0  39909-3 0  9993,2 52837  53.2160 196.7876 0001389  91.1781 268.9371 15.08856709103465,6917.829,95.436,540.655,538.733,0.0
